[{"OBJECT_NAME":"CONNECTA IOT-11","OBJECT_ID":"2025-135AF","EPOCH":"2026-03-09T19:22:47.918784","MEAN_MOTION":15.20956963,"ECCENTRICITY":0.0001643,"INCLINATION":97.4588,"RA_OF_ASC_NODE":185.0556,"ARG_OF_PERICENTER":46.4014,"MEAN_ANOMALY":313.7358,"EPHEMERIS_TYPE":0,"CLASSIFICATION_TYPE":"U","NORAD_CAT_ID":64557,"ELEMENT_SET_NO":999,"REV_AT_EPOCH":3976,"BSTAR":0.00025659411,"MEAN_MOTION_DOT":5.614e-5,"MEAN_MOTION_DDOT":0},{"OBJECT_NAME":"DCS-1","OBJECT_ID":"2025-313R","EPOCH":"2026-03-09T22:34:45.868224","MEAN_MOTION":15.21562848,"ECCENTRICITY":0.00145796,"INCLINATION":97.4021,"RA_OF_ASC_NODE":145.2125,"ARG_OF_PERICENTER":357.8679,"MEAN_ANOMALY":2.2492,"EPHEMERIS_TYPE":0,"CLASSIFICATION_TYPE":"U","NORAD_CAT_ID":67263,"ELEMENT_SET_NO":999,"REV_AT_EPOCH":1085,"BSTAR":0.0005215367,"MEAN_MOTION_DOT":0.00011729,"MEAN_MOTION_DDOT":0}]
